XM-3 (RHYTHM)           
1 28626U 05008A   17266.52873531 -.00000227  00000-0  00000+0 0  9994
2 28626   0.0140 300.1149 0000171 138.9815  28.7161  1.00273814 46093
INMARSAT 4-F1           
1 28628U 05009A   17265.63392111 -.00000282  00000-0  00000+0 0  9999
2 28628   2.8902  13.3040 0002772 177.4231 182.6683  1.00272231 45699
APSTAR 6                
1 28638U 05012A   17265.94493573 -.00000340  00000-0  00000+0 0  9997
2 28638   0.0052  41.0170 0002033 152.4425 282.7037  1.00275571 70431
SPACEWAY 1              
1 28644U 05015A   17266.23524885 -.00000125  00000-0  00000+0 0  9992
2 28644   0.0331 314.6086 0000148 109.1861 280.2537  1.00273321 45533
DIRECTV 8               
1 28659U 05019A   17266.27371851 -.00000137  00000-0  00000+0 0  9992
2 28659   0.0195 194.4320 0003072 353.3905 172.1727  1.00270133 45216
GALAXY 28 (G-28)        
1 28702U 05022A   17266.53013740 -.00000206  00000-0  00000+0 0  9991
2 28702   0.0232 184.8997 0000435 225.5567  53.9449  1.00270657 44851
EXPRESS-AM3             
1 28707U 05023A   17266.33253032 -.00000343  00000-0  00000+0 0  9997
2 28707   0.0407 311.7384 0000976  20.0093 253.3016  1.00269376 44877
THAICOM 4               
1 28786U 05028A   17266.46601047 -.00000384  00000-0  00000+0 0  9991
2 28786   0.0194 169.3658 0002151   0.6797 119.7110  1.00269109 44357
GALAXY 14 (G-14)        
1 28790U 05030A   17266.24236265  .00000015  00000-0  00000+0 0  9991
2 28790   0.0167 218.8693 0002308 323.2483 142.4130  1.00272731 44328
ANIK F1R                
1 28868U 05036A   17265.61282837 -.00000097  00000-0  00000-0 0  9991
2 28868   0.0278  73.6593 0001109  45.7732 355.5251  1.00272479 14534
GALAXY 15 (G-15)        
1 28884U 05041A   17266.54408318  .00000058  00000-0  00000+0 0  9997
2 28884   0.0191 160.2406 0001487  60.3476 204.8262  1.00271947 43651
SYRACUSE 3A             
1 28885U 05041B   17265.66736965  .00000105  00000-0  00000-0 0  9996
2 28885   0.0199 254.0437 0003020 295.0678  99.9099  1.00277338 43776
INMARSAT 4-F2           
1 28899U 05044A   17265.85396158 -.00000010  00000-0  00000+0 0  9996
2 28899   2.5911  13.1355 0002537 174.6200 185.4765  1.00272069 43528
TELKOM 2                
1 28902U 05046A   17265.93521719 -.00000161  00000-0  00000+0 0  9992
2 28902   0.0063 194.2293 0001304 264.1337  37.3072  1.00271492 43269
SPACEWAY 2              
1 28903U 05046B   17266.14285642 -.00000149  00000-0  00000+0 0  9995
2 28903   0.0356   2.5931 0000245  13.9599 297.9893  1.00272628 43513
INSAT-4A                
1 28911U 05049A   17265.76434579 -.00000188  00000-0  00000+0 0  9992
2 28911   0.0269 242.3173 0004747 344.9650 132.6866  1.00272612 43117
METEOSAT-9 (MSG-2)      
1 28912U 05049B   17266.23991000  .00000042  00000-0  00000+0 0  9991
2 28912   2.3894  71.3350 0000860 257.9836 128.9242  1.00264679 43104
EUTELSAT 172A (GE-23)   
1 28924U 05052A   17265.93035503 -.00000029  00000-0  00000+0 0  9997
2 28924   0.0655 358.6370 0005680 186.3102 323.9488  1.00271637 43006
ECHOSTAR 10             
1 28935U 06003A   17266.14771583 -.00000077  00000-0  00000+0 0  9998
2 28935   0.0154 152.7523 0001807 351.8130 160.5908  1.00269675 42530
HIMAWARI-7 (MTSAT-2)    
1 28937U 06004A   17265.94007635 -.00000266  00000-0  00000+0 0  9998
2 28937   0.0334  74.5688 0004027 115.1791 295.6663  1.00269482 42372
SPAINSAT                
1 28945U 06007A   17266.07737594 -.00000238  00000-0  00000+0 0  9998
2 28945   0.0400 239.9011 0005164 310.2785 169.8195  1.00273309 42258
EUTELSAT HOT BIRD 13E   
1 28946U 06007B   17264.96104017  .00000062  00000-0  00000-0 0  9998
2 28946   0.0514 243.0114 0006975 310.2204 166.7569  1.00272561 42308
JCSAT-5A                
1 29045U 06010A   17265.73452119 -.00000351  00000-0  00000+0 0  9999
2 29045   0.0215 187.9528 0001471   6.7996 203.5103  1.00269189 41960
ASTRA 1KR               
1 29055U 06012A   17266.11646365  .00000098  00000-0  00000+0 0  9990
2 29055   0.0881 275.0207 0004737 293.9307 214.3503  1.00275819 41766
GOES 13                 
1 29155U 06018A   17266.20194833 -.00000272  00000-0  00000+0 0  9990
2 29155   0.0538 119.6383 0003163 346.2334 254.1729  1.00280212 41549
EUTELSAT 113 WEST A     
1 29162U 06020A   17266.30726319 -.00000059  00000-0  00000+0 0  9995
2 29162   0.0016 177.7029 0003101  18.4949 163.7924  1.00269158 41494
THAICOM 5               
1 29163U 06020B   17266.06299539 -.00000144  00000-0  00000+0 0  9993
2 29163   0.0112 186.0996 0005398  46.3786 230.8187  1.00272935 41558
GALAXY 16 (G-16)        
1 29236U 06023A   17266.23411278 -.00000149  00000-0  00000+0 0  9997
2 29236   0.0186 156.9483 0002562  27.4846 163.1185  1.00271659 41282
EUTELSAT HOT BIRD 13B   
1 29270U 06032A   17265.60118744  .00000063  00000-0  00000-0 0  9992
2 29270   0.0801 336.5669 0002339 223.5823  30.9073  1.00273090 15348
JCSAT-3A                
1 29272U 06033A   17264.96785448 -.00000370  00000-0  00000+0 0  9995
2 29272   0.0272 263.6114 0002126 285.9219 287.9433  1.00272755 40778
SYRACUSE 3B             
1 29273U 06033B   17265.80323696 -.00000067  00000-0  00000+0 0  9996
2 29273   0.0114 135.6731 0002674  52.6150  97.5178  1.00272247 40764
KOREASAT 5 (MUGUNGWHA 5)
1 29349U 06034A   17265.75813208 -.00000381  00000-0  00000+0 0  9997
2 29349   0.0196 185.0057 0001365 351.3524 211.4161  1.00271978 40655
ZHONGXING-22A           
1 29398U 06038A   17265.83602008 -.00000339  00000-0  00000-0 0  9992
2 29398   5.9539  57.1609 0008314 177.3350 170.1064  1.00271144 40423
DIRECTV 9S              
1 29494U 06043A   17265.72893410 -.00000137  00000-0  00000+0 0  9997
2 29494   0.0173 220.2987 0003115 323.2374 339.5599  1.00272083 40128
OPTUS D1                
1 29495U 06043B   17265.77757691 -.00000134  00000-0  00000+0 0  9990
2 29495   0.0220 177.0282 0003411   0.6175 264.0933  1.00270321 40164
XM-4 (BLUES)            
1 29520U 06049A   17265.97549399 -.00000046  00000-0  00000+0 0  9993
2 29520   0.0222   0.5133 0000220 138.5762  98.8875  1.00273500 40012
BADR-4                  
1 29526U 06051A   17265.75672598  .00000121  00000-0  00000+0 0  9999
2 29526   0.0607 331.7587 0001975 254.1068  74.3657  1.00269534 39904
FENGYUN 2D              
1 29640U 06053A   17266.34702191 -.00000379  00000-0  10000-3 0  9998
2 29640   4.6275  63.8970 0006900 320.5532 226.5101  1.00266603 39581
WILDBLUE-1              
1 29643U 06054A   17266.23790578 -.00000071  00000-0  00000+0 0  9990
2 29643   0.0113 200.9946 0001654 329.1409 166.6205  1.00272301 39560
AMC-18                  
1 29644U 06054B   17266.53498936 -.00000111  00000-0  00000+0 0  9992
2 29644   0.0174 207.4253 0002414 325.1208 277.6823  1.00272946 39585
MEASAT-3                
1 29648U 06056A   17266.30604803 -.00000264  00000-0  00000+0 0  9994
2 29648   0.0338 144.4609 0003370  22.0441  37.5455  1.00272765 39572
INSAT-4B                
1 30793U 07007A   17266.15049253 -.00000280  00000-0  00000+0 0  9997
2 30793   0.0355 109.1073 0005460  15.5155  25.2032  1.00271461 38585
SKYNET 5A               
1 30794U 07007B   17265.79428356 -.00000295  00000-0  00000-0 0  9999
2 30794   0.0722 346.2628 0004556 207.8537 188.8649  1.00273864 38713
ANIK F3                 
1 31102U 07009A   17265.73865701 -.00000024  00000-0  00000+0 0  9997
2 31102   0.0370 104.2197 0001563  60.1656 344.5919  1.00272396 38356
ASTRA 1L                
1 31306U 07016A   17265.60118744  .00000096  00000-0  00000+0 0  9993
2 31306   0.0997 295.7143 0002616 297.4805   4.0944  1.00274489 38053
GALAXY 17 (G-17)        
1 31307U 07016B   17266.53053049 -.00000196  00000-0  00000+0 0  9995
2 31307   0.0136 253.7028 0003315 296.7912 272.0779  1.00272290 38100
ZHONGXING-6B            
1 31800U 07031A   17265.83706843 -.00000384  00000-0  00000+0 0  9998
2 31800   0.0226 183.2072 0003132  10.9844 224.5747  1.00269140 37499
DIRECTV 10              
1 31862U 07032A   17265.28203825 -.00000127  00000-0  00000-0 0  9994
2 31862   0.0111 268.7137 0000213 246.3457 204.9416  1.00270835 13653
SPACEWAY 3              
1 32018U 07036A   17265.72893410 -.00000175  00000-0  00000+0 0  9998
2 32018   0.0119  22.4119 0000244  18.1012 128.7344  1.00273015 37142
BSAT-3A                 
1 32019U 07036B   17265.68996418 -.00000374  00000-0  00000-0 0  9998
2 32019   0.0536 231.4771 0004542 336.1790 152.3285  1.00271178 18518
INSAT-4CR               
1 32050U 07037A   17266.16545875  .00000103  00000-0  00000+0 0  9993
2 32050   0.0119 156.9909 0002804  10.3834 302.2334  1.00271493 36873
OPTUS D2                
1 32252U 07044A   17265.83001640 -.00000206  00000-0  00000+0 0  9990
2 32252   0.0135 126.9583 0003451  52.7400 272.9769  1.00270947 36461
INTELSAT 11 (IS-11)     
1 32253U 07044B   17266.24496328 -.00000290  00000-0  00000+0 0  9991
2 32253   0.0224 211.2541 0001492 333.3682 222.8687  1.00273090 36551
STAR ONE C1             
1 32293U 07056A   17266.17437456 -.00000299  00000-0  00000+0 0  9996
2 32293   0.0157 125.1858 0002875  65.6503 169.1675  1.00273573 36137
SKYNET 5B               
1 32294U 07056B   17265.66049227  .00000119  00000-0  00000-0 0  9996
2 32294   0.0706 357.9651 0003912 187.9317  78.7325  1.00275790 36239
ASTRA 4A (SIRIUS 4)     
1 32299U 07057A   17265.79840976  .00000010  00000-0  00000-0 0  9996
2 32299   0.0352 312.7714 0002577 227.1588 114.1498  1.00273545 19720
HORIZONS-2              
1 32388U 07063B   17265.85056508 -.00000205  00000-0  00000-0 0  9996
2 32388   0.0174 201.2628 0002593 329.0667 222.6062  1.00269154 35872
THURAYA-3               
1 32404U 08001A   17266.30604803 -.00000322  00000-0  00000+0 0  9995
2 32404   4.0166 354.7849 0004388 179.2149  36.9847  1.00269671 35555
EXPRESS-AM33            
1 32478U 08003A   17265.60465979 -.00000304  00000-0  00000-0 0  9990
2 32478   0.0310 306.7601 0001652 322.7098  46.3418  1.00269986 35621
